CCSDS_OMM_VERS = 2.0
CREATION_DATE  = 
ORIGINATOR     = 

OBJECT_NAME    = DELTA 2 R/B(1)
OBJECT_ID      = 1990-008B
CENTER_NAME    = EARTH
REF_FRAME      = TEME
TIME_SYSTEM    = UTC
MEAN_ELEMENT_THEORY = SGP/SGP4

EPOCH          = 2025-11-17T08:07:20.612928
MEAN_MOTION    = 15.42936088
ECCENTRICITY   = .0116971
INCLINATION    = 35.6065
RA_OF_ASC_NODE = 184.2600
ARG_OF_PERICENTER = 306.5806
MEAN_ANOMALY   = 52.4209

EPHEMERIS_TYPE = 0
CLASSIFICATION_TYPE = U
NORAD_CAT_ID   = 20453
ELEMENT_SET_NO = 999
REV_AT_EPOCH   = 90870
BSTAR          = .81193E-3
MEAN_MOTION_DOT = .47725E-3
MEAN_MOTION_DDOT = 0

CCSDS_OMM_VERS = 2.0
CREATION_DATE  = 
ORIGINATOR     = 

OBJECT_NAME    = COSMOS 2058
OBJECT_ID      = 1990-010A
CENTER_NAME    = EARTH
REF_FRAME      = TEME
TIME_SYSTEM    = UTC
MEAN_ELEMENT_THEORY = SGP/SGP4

EPOCH          = 2025-11-17T12:22:07.176576
MEAN_MOTION    = 15.10184814
ECCENTRICITY   = .0010592
INCLINATION    = 82.4639
RA_OF_ASC_NODE = 157.8468
ARG_OF_PERICENTER = 9.3734
MEAN_ANOMALY   = 350.7691

EPHEMERIS_TYPE = 0
CLASSIFICATION_TYPE = U
NORAD_CAT_ID   = 20465
ELEMENT_SET_NO = 999
REV_AT_EPOCH   = 92530
BSTAR          = .32609E-3
MEAN_MOTION_DOT = .5358E-4
MEAN_MOTION_DDOT = 0

CCSDS_OMM_VERS = 2.0
CREATION_DATE  = 
ORIGINATOR     = 

OBJECT_NAME    = SL-14 R/B
OBJECT_ID      = 1990-010B
CENTER_NAME    = EARTH
REF_FRAME      = TEME
TIME_SYSTEM    = UTC
MEAN_ELEMENT_THEORY = SGP/SGP4

EPOCH          = 2025-11-17T05:58:02.310240
MEAN_MOTION    = 14.83439122
ECCENTRICITY   = .0018674
INCLINATION    = 82.5043
RA_OF_ASC_NODE = 12.9863
ARG_OF_PERICENTER = 313.5345
MEAN_ANOMALY   = 46.4318

EPHEMERIS_TYPE = 0
CLASSIFICATION_TYPE = U
NORAD_CAT_ID   = 20466
ELEMENT_SET_NO = 999
REV_AT_EPOCH   = 91181
BSTAR          = .92512E-4
MEAN_MOTION_DOT = .785E-5
MEAN_MOTION_DDOT = 0

CCSDS_OMM_VERS = 2.0
CREATION_DATE  = 
ORIGINATOR     = 

OBJECT_NAME    = SL-14 R/B
OBJECT_ID      = 1990-018B
CENTER_NAME    = EARTH
REF_FRAME      = TEME
TIME_SYSTEM    = UTC
MEAN_ELEMENT_THEORY = SGP/SGP4

EPOCH          = 2025-11-17T11:54:10.024704
MEAN_MOTION    = 14.82011816
ECCENTRICITY   = .0017945
INCLINATION    = 82.5202
RA_OF_ASC_NODE = 327.9625
ARG_OF_PERICENTER = 100.5524
MEAN_ANOMALY   = 259.7713

EPHEMERIS_TYPE = 0
CLASSIFICATION_TYPE = U
NORAD_CAT_ID   = 20511
ELEMENT_SET_NO = 999
REV_AT_EPOCH   = 90596
BSTAR          = .9299E-4
MEAN_MOTION_DOT = .763E-5
MEAN_MOTION_DDOT = 0

CCSDS_OMM_VERS = 2.0
CREATION_DATE  = 
ORIGINATOR     = 

OBJECT_NAME    = SL-16 R/B
OBJECT_ID      = 1990-046B
CENTER_NAME    = EARTH
REF_FRAME      = TEME
TIME_SYSTEM    = UTC
MEAN_ELEMENT_THEORY = SGP/SGP4

EPOCH          = 2025-11-17T07:07:01.045632
MEAN_MOTION    = 14.14990151
ECCENTRICITY   = .00123
INCLINATION    = 70.9961
RA_OF_ASC_NODE = 173.9546
ARG_OF_PERICENTER = 120.0778
MEAN_ANOMALY   = 240.1566

EPHEMERIS_TYPE = 0
CLASSIFICATION_TYPE = U
NORAD_CAT_ID   = 20625
ELEMENT_SET_NO = 999
REV_AT_EPOCH   = 83249
BSTAR          = -.1136E-5
MEAN_MOTION_DOT = -.5E-6
MEAN_MOTION_DDOT = 0

CCSDS_OMM_VERS = 2.0
CREATION_DATE  = 
ORIGINATOR     = 

OBJECT_NAME    = COSMOS 2084
OBJECT_ID      = 1990-055A
CENTER_NAME    = EARTH
REF_FRAME      = TEME
TIME_SYSTEM    = UTC
MEAN_ELEMENT_THEORY = SGP/SGP4

EPOCH          = 2025-11-17T10:49:16.052736
MEAN_MOTION    = 15.04809240
ECCENTRICITY   = .0035798
INCLINATION    = 62.7919
RA_OF_ASC_NODE = 358.1476
ARG_OF_PERICENTER = 171.6784
MEAN_ANOMALY   = 188.4918

EPHEMERIS_TYPE = 0
CLASSIFICATION_TYPE = U
NORAD_CAT_ID   = 20663
ELEMENT_SET_NO = 999
REV_AT_EPOCH   = 91942
BSTAR          = .31036E-3
MEAN_MOTION_DOT = .4261E-4
MEAN_MOTION_DDOT = 0

CCSDS_OMM_VERS = 2.0
CREATION_DATE  = 
ORIGINATOR     = 

OBJECT_NAME    = SL-6 R/B(2)
OBJECT_ID      = 1990-055D
CENTER_NAME    = EARTH
REF_FRAME      = TEME
TIME_SYSTEM    = UTC
MEAN_ELEMENT_THEORY = SGP/SGP4

EPOCH          = 2025-11-17T05:15:23.016960
MEAN_MOTION    = 15.02905715
ECCENTRICITY   = .0010941
INCLINATION    = 62.7834
RA_OF_ASC_NODE = 276.1178
ARG_OF_PERICENTER = 287.0948
MEAN_ANOMALY   = 72.8952

EPHEMERIS_TYPE = 0
CLASSIFICATION_TYPE = U
NORAD_CAT_ID   = 20666
ELEMENT_SET_NO = 999
REV_AT_EPOCH   = 92128
BSTAR          = .32707E-3
MEAN_MOTION_DOT = .4222E-4
MEAN_MOTION_DDOT = 0

CCSDS_OMM_VERS = 2.0
CREATION_DATE  = 
ORIGINATOR     = 

OBJECT_NAME    = SL-8 R/B
OBJECT_ID      = 1990-078B
CENTER_NAME    = EARTH
REF_FRAME      = TEME
TIME_SYSTEM    = UTC
MEAN_ELEMENT_THEORY = SGP/SGP4

EPOCH          = 2025-11-17T11:12:06.043968
MEAN_MOTION    = 14.84508524
ECCENTRICITY   = .0379761
INCLINATION    = 82.9064
RA_OF_ASC_NODE = 351.9043
ARG_OF_PERICENTER = 30.5747
MEAN_ANOMALY   = 331.7013

EPHEMERIS_TYPE = 0
CLASSIFICATION_TYPE = U
NORAD_CAT_ID   = 20775
ELEMENT_SET_NO = 999
REV_AT_EPOCH   = 79262
BSTAR          = .70911E-3
MEAN_MOTION_DOT = .22965E-3
MEAN_MOTION_DDOT = 0

CCSDS_OMM_VERS = 2.0
CREATION_DATE  = 
ORIGINATOR     = 

OBJECT_NAME    = SL-8 R/B
OBJECT_ID      = 1991-006B
CENTER_NAME    = EARTH
REF_FRAME      = TEME
TIME_SYSTEM    = UTC
MEAN_ELEMENT_THEORY = SGP/SGP4

EPOCH          = 2025-11-17T08:07:36.372288
MEAN_MOTION    = 13.77485566
ECCENTRICITY   = .0022455
INCLINATION    = 82.9419
RA_OF_ASC_NODE = 253.6061
ARG_OF_PERICENTER = 353.6509
MEAN_ANOMALY   = 120.7022

EPHEMERIS_TYPE = 0
CLASSIFICATION_TYPE = U
NORAD_CAT_ID   = 21088
ELEMENT_SET_NO = 999
REV_AT_EPOCH   = 74860
BSTAR          = .13382E-3
MEAN_MOTION_DOT = .148E-5
MEAN_MOTION_DDOT = 0

