DELTA 2 R/B(1)          
1 20453U 90008B   25321.33843302  .00047725  00000+0  81193-3 0  9999
2 20453  35.6065 184.2600 0116971 306.5806  52.4209 15.42936088908707
COSMOS 2058             
1 20465U 90010A   25321.51536084  .00005358  00000+0  32609-3 0  9995
2 20465  82.4639 157.8468 0010592   9.3734 350.7691 15.10184814925306
SL-14 R/B               
1 20466U 90010B   25321.24863785  .00000785  00000+0  92512-4 0  9996
2 20466  82.5043  12.9863 0018674 313.5345  46.4318 14.83439122911814
SL-14 R/B               
1 20511U 90018B   25321.49594936  .00000763  00000+0  92990-4 0  9997
2 20511  82.5202 327.9625 0017945 100.5524 259.7713 14.82011816905962
SL-16 R/B               
1 20625U 90046B   25321.29653988 -.00000050  00000+0 -11360-5 0  9999
2 20625  70.9961 173.9546 0012300 120.0778 240.1566 14.14990151832490
COSMOS 2084             
1 20663U 90055A   25321.45088024  .00004261  00000+0  31036-3 0  9998
2 20663  62.7919 358.1476 0035798 171.6784 188.4918 15.04809240919420
SL-6 R/B(2)             
1 20666U 90055D   25321.21901641  .00004222  00000+0  32707-3 0  9997
2 20666  62.7834 276.1178 0010941 287.0948  72.8952 15.02905715921287
SL-8 R/B                
1 20775U 90078B   25321.46673662  .00022965  00000+0  70911-3 0  9992
2 20775  82.9064 351.9043 0379761  30.5747 331.7013 14.84508524792621
SL-8 R/B                
1 21088U 91006B   25321.33861542  .00000148  00000+0  13382-3 0  9992
2 21088  82.9419 253.6061 0022455 353.6509 120.7022 13.77485566748607
